{
  "type": "FeatureCollection",
  "features": [
    {
      "type": "Feature",
      "properties": {
        "norad_id": 66982,
        "name": "STARLINK-36113",
        "group": "last-30-days",
        "lat": -40.740331426527135,
        "lon": -16.597722870517213,
        "alt_km": 363.610247476332,
        "timestamp": "2025-12-24T09:46:29.717698+00:00",
        "meta_object_name": "STARLINK-36113",
        "meta_object_id": "2025-288Z",
        "meta_epoch": "2025-12-24T04:00:01.998720",
        "meta_mean_motion": 15.70159586,
        "meta_eccentricity": 0.0001551,
        "meta_inclination": 43.0004,
        "meta_ra_of_asc_node": 97.2793,
        "meta_arg_of_pericenter": 268.9738,
        "meta_mean_anomaly": 62.9873,
        "meta_ephemeris_type": 0,
        "meta_classification_type": "U",
        "meta_norad_cat_id": 66982,
        "meta_element_set_no": 999,
        "meta_rev_at_epoch": 366,
        "meta_bstar": -0.017337,
        "meta_mean_motion_dot": -0.01917069,
        "meta_mean_motion_ddot": 0,
        "tle_line1": "1 66982U 25288Z   25358.16668980 -.01917069  00000+0 -17337-1 0  9999",
        "tle_line2": "2 66982  43.0004  97.2793 0001551 268.9738  62.9873 15.70159586  3663"
      },
      "geometry": {
        "type": "Point",
        "coordinates": [
          -16.597722870517213,
          -40.740331426527135
        ]
      }
    },
    {
      "type": "Feature",
      "properties": {
        "norad_id": 66983,
        "name": "STARLINK-36145",
        "group": "last-30-days",
        "lat": -41.63150229659648,
        "lon": -11.655995159289708,
        "alt_km": 363.8610018128729,
        "timestamp": "2025-12-24T09:46:29.717709+00:00",
        "meta_object_name": "STARLINK-36145",
        "meta_object_id": "2025-288AA",
        "meta_epoch": "2025-12-24T04:00:01.998720",
        "meta_mean_motion": 15.70138342,
        "meta_eccentricity": 0.0001293,
        "meta_inclination": 43.0002,
        "meta_ra_of_asc_node": 97.2699,
        "meta_arg_of_pericenter": 275.0355,
        "meta_mean_anomaly": 60.7754,
        "meta_ephemeris_type": 0,
        "meta_classification_type": "U",
        "meta_norad_cat_id": 66983,
        "meta_element_set_no": 999,
        "meta_rev_at_epoch": 366,
        "meta_bstar": -0.017152,
        "meta_mean_motion_dot": -0.01897243,
        "meta_mean_motion_ddot": 0,
        "tle_line1": "1 66983U 25288AA  25358.16668980 -.01897243  00000+0 -17152-1 0  9996",
        "tle_line2": "2 66983  43.0002  97.2699 0001293 275.0355  60.7754 15.70138342  3665"
      },
      "geometry": {
        "type": "Point",
        "coordinates": [
          -11.655995159289708,
          -41.63150229659648
        ]
      }
    },
    {
      "type": "Feature",
      "properties": {
        "norad_id": 66984,
        "name": "STARLINK-35591",
        "group": "last-30-days",
        "lat": -41.21352476687983,
        "lon": -14.138149983889221,
        "alt_km": 363.6708328679051,
        "timestamp": "2025-12-24T09:46:29.717719+00:00",
        "meta_object_name": "STARLINK-35591",
        "meta_object_id": "2025-288AB",
        "meta_epoch": "2025-12-24T04:00:01.998720",
        "meta_mean_motion": 15.70162975,
        "meta_eccentricity": 0.0001495,
        "meta_inclination": 43.0003,
        "meta_ra_of_asc_node": 97.2741,
        "meta_arg_of_pericenter": 269.7272,
        "meta_mean_anomaly": 64.1565,
        "meta_ephemeris_type": 0,
        "meta_classification_type": "U",
        "meta_norad_cat_id": 66984,
        "meta_element_set_no": 999,
        "meta_rev_at_epoch": 366,
        "meta_bstar": -0.017459,
        "meta_mean_motion_dot": -0.01929203,
        "meta_mean_motion_ddot": 0,
        "tle_line1": "1 66984U 25288AB  25358.16668980 -.01929203  00000+0 -17459-1 0  9999",
        "tle_line2": "2 66984  43.0003  97.2741 0001495 269.7272  64.1565 15.70162975  3664"
      },
      "geometry": {
        "type": "Point",
        "coordinates": [
          -14.138149983889221,
          -41.21352476687983
        ]
      }
    },
    {
      "type": "Feature",
      "properties": {
        "norad_id": 66985,
        "name": "STARLINK-36103",
        "group": "last-30-days",
        "lat": -41.99580757220841,
        "lon": -9.142520551275926,
        "alt_km": 363.60726809941025,
        "timestamp": "2025-12-24T09:46:29.717729+00:00",
        "meta_object_name": "STARLINK-36103",
        "meta_object_id": "2025-288AC",
        "meta_epoch": "2025-12-24T04:00:01.998720",
        "meta_mean_motion": 15.70156531,
        "meta_eccentricity": 0.0001613,
        "meta_inclination": 43.0004,
        "meta_ra_of_asc_node": 97.2647,
        "meta_arg_of_pericenter": 271.5919,
        "meta_mean_anomaly": 66.1219,
        "meta_ephemeris_type": 0,
        "meta_classification_type": "U",
        "meta_norad_cat_id": 66985,
        "meta_element_set_no": 999,
        "meta_rev_at_epoch": 366,
        "meta_bstar": -0.017304,
        "meta_mean_motion_dot": -0.01913638,
        "meta_mean_motion_ddot": 0,
        "tle_line1": "1 66985U 25288AC  25358.16668980 -.01913638  00000+0 -17304-1 0  9994",
        "tle_line2": "2 66985  43.0004  97.2647 0001613 271.5919  66.1219 15.70156531  3661"
      },
      "geometry": {
        "type": "Point",
        "coordinates": [
          -9.142520551275926,
          -41.99580757220841
        ]
      }
    },
    {
      "type": "Feature",
      "properties": {
        "norad_id": 66986,
        "name": "STARLINK-36135",
        "group": "last-30-days",
        "lat": -42.30461399227583,
        "lon": -6.597396292590702,
        "alt_km": 363.62495414154637,
        "timestamp": "2025-12-24T09:46:29.717739+00:00",
        "meta_object_name": "STARLINK-36135",
        "meta_object_id": "2025-288AD",
        "meta_epoch": "2025-12-24T04:00:01.998720",
        "meta_mean_motion": 15.70154144,
        "meta_eccentricity": 0.0001609,
        "meta_inclination": 43.0002,
        "meta_ra_of_asc_node": 97.2593,
        "meta_arg_of_pericenter": 272.4884,
        "meta_mean_anomaly": 67.1462,
        "meta_ephemeris_type": 0,
        "meta_classification_type": "U",
        "meta_norad_cat_id": 66986,
        "meta_element_set_no": 999,
        "meta_rev_at_epoch": 366,
        "meta_bstar": -0.017311,
        "meta_mean_motion_dot": -0.01914208,
        "meta_mean_motion_ddot": 0,
        "tle_line1": "1 66986U 25288AD  25358.16668980 -.01914208  00000+0 -17311-1 0  9997",
        "tle_line2": "2 66986  43.0002  97.2593 0001609 272.4884  67.1462 15.70154144  3665"
      },
      "geometry": {
        "type": "Point",
        "coordinates": [
          -6.597396292590702,
          -42.30461399227583
        ]
      }
    },
    {
      "type": "Feature",
      "properties": {
        "norad_id": 66987,
        "name": "STARLINK-36147",
        "group": "last-30-days",
        "lat": -42.555993100220064,
        "lon": -4.033212122888907,
        "alt_km": 363.6828771923174,
        "timestamp": "2025-12-24T09:46:29.717749+00:00",
        "meta_object_name": "STARLINK-36147",
        "meta_object_id": "2025-288AE",
        "meta_epoch": "2025-12-24T04:00:01.998720",
        "meta_mean_motion": 15.7016305,
        "meta_eccentricity": 0.0001502,
        "meta_inclination": 43.0001,
        "meta_ra_of_asc_node": 97.2558,
        "meta_arg_of_pericenter": 272.5909,
        "meta_mean_anomaly": 68.9515,
        "meta_ephemeris_type": 0,
        "meta_classification_type": "U",
        "meta_norad_cat_id": 66987,
        "meta_element_set_no": 999,
        "meta_rev_at_epoch": 366,
        "meta_bstar": -0.017369,
        "meta_mean_motion_dot": -0.01920367,
        "meta_mean_motion_ddot": 0,
        "tle_line1": "1 66987U 25288AE  25358.16668980 -.01920367  00000+0 -17369-1 0  9994",
        "tle_line2": "2 66987  43.0001  97.2558 0001502 272.5909  68.9515 15.70163050  3661"
      },
      "geometry": {
        "type": "Point",
        "coordinates": [
          -4.033212122888907,
          -42.555993100220064
        ]
      }
    },
    {
      "type": "Feature",
      "properties": {
        "norad_id": 66988,
        "name": "YAOGAN-47",
        "group": "last-30-days",
        "lat": -33.42525236579301,
        "lon": -121.44905916140533,
        "alt_km": 502.570567870187,
        "timestamp": "2025-12-24T09:46:29.717759+00:00",
        "meta_object_name": "YAOGAN-47",
        "meta_object_id": "2025-289A",
        "meta_epoch": "2025-12-20T02:21:43.539840",
        "meta_mean_motion": 15.23243112,
        "meta_eccentricity": 6.467e-05,
        "meta_inclination": 97.5265,
        "meta_ra_of_asc_node": 59.2376,
        "meta_arg_of_pericenter": 91.4531,
        "meta_mean_anomaly": 268.678,
        "meta_ephemeris_type": 0,
        "meta_classification_type": "U",
        "meta_norad_cat_id": 66988,
        "meta_element_set_no": 999,
        "meta_rev_at_epoch": 166,
        "meta_bstar": 0.00010945697,
        "meta_mean_motion_dot": 2.52e-05,
        "meta_mean_motion_ddot": 0,
        "tle_line1": "1 66988U 25289A   25354.09842060  .00002520  00000+0  10946-3 0  9992",
        "tle_line2": "2 66988  97.5265  59.2376 0000646  91.4531 268.6780 15.23243112  1668"
      },
      "geometry": {
        "type": "Point",
        "coordinates": [
          -121.44905916140533,
          -33.42525236579301
        ]
      }
    }
  ]
}